{
    "links": {
        "self": "http://www.neowsapp.com/rest/v1/neo/3467225?api_key=iIulBulltgU6a56xZRHN4H3l9WmuAYTsLGpBGhQ2"
    },
    "id": "3467225",
    "neo_reference_id": "3467225",
    "name": "(2009 SM1)",
    "designation": "2009 SM1",
    "nasa_jpl_url": "http://ssd.jpl.nasa.gov/sbdb.cgi?sstr=3467225",
    "absolute_magnitude_h": 25.0,
    "estimated_diameter": {
        "kilometers": {
            "estimated_diameter_min": 0.02658,
            "estimated_diameter_max": 0.0594346868
        },
        "meters": {
            "estimated_diameter_min": 26.58,
            "estimated_diameter_max": 59.4346868419
        },
        "miles": {
            "estimated_diameter_min": 0.0165160412,
            "estimated_diameter_max": 0.0369309908
        },
        "feet": {
            "estimated_diameter_min": 87.2047272,
            "estimated_diameter_max": 194.9956979785
        }
    },
    "is_potentially_hazardous_asteroid": false,
    "close_approach_data": [
        {
            "close_approach_date": "2009-08-29",
            "close_approach_date_full": "2009-Aug-29 06:27",
            "epoch_date_close_approach": 1251527220000,
            "relative_velocity": {
                "kilometers_per_second": "5.7269522326",
                "kilometers_per_hour": "20617.0280373625",
                "miles_per_hour": "12810.6194491045"
            },
            "miss_distance": {
                "astronomical": "0.0845475747",
                "lunar": "32.8890065583",
                "kilometers": "12648137.088785889",
                "miles": "7859187.9515837082"
            },
            "orbiting_body": "Earth"
        }
    ],
    "orbital_data": {
        "orbit_id": "10",
        "orbit_determination_date": "2017-04-06 08:59:58",
        "first_observation_date": "2009-09-18",
        "last_observation_date": "2009-09-26",
        "data_arc_in_days": 8,
        "observations_used": 30,
        "orbit_uncertainty": "8",
        "minimum_orbit_intersection": ".07914",
        "jupiter_tisserand_invariant": "3.495",
        "epoch_osculation": "2455095.5",
        "eccentricity": ".5028352918318142",
        "semi_major_axis": "2.1930779917594",
        "inclination": ".4009527272565587",
        "ascending_node_longitude": "323.1095301509109",
        "orbital_period": "1186.259058545881",
        "perihelion_distance": "1.090320979763133",
        "perihelion_argument": "8.972677050326284",
        "aphelion_distance": "3.295835003755666",
        "perihelion_time": "2455070.423044412834",
        "mean_anomaly": "7.610229777672627",
        "mean_motion": ".303475027150721",
        "equinox": "J2000",
        "orbit_class": {
            "orbit_class_type": "AMO",
            "orbit_class_description": "Near-Earth asteroid orbits similar to that of 1221 Amor",
            "orbit_class_range": "1.017 AU < q (perihelion) < 1.3 AU"
        }
    },
    "is_sentry_object": false
}